[{"OBJECT_NAME":"STARLINK-33916","OBJECT_ID":"2025-091T","EPOCH":"2026-02-21T07:23:10.362048","MEAN_MOTION":15.27612209,"ECCENTRICITY":0.0001319,"INCLINATION":42.9993,"RA_OF_ASC_NODE":145.3112,"ARG_OF_PERICENTER":208.7559,"MEAN_ANOMALY":151.322,"EPHEMERIS_TYPE":0,"CLASSIFICATION_TYPE":"U","NORAD_CAT_ID":63792,"ELEMENT_SET_NO":999,"REV_AT_EPOCH":4639,"BSTAR":0.00081937,"MEAN_MOTION_DOT":0.00022376,"MEAN_MOTION_DDOT":0},{"OBJECT_NAME":"STARLINK-33925","OBJECT_ID":"2025-091U","EPOCH":"2026-02-20T13:15:38.926368","MEAN_MOTION":15.27595669,"ECCENTRICITY":0.00010677,"INCLINATION":42.9965,"RA_OF_ASC_NODE":149.0986,"ARG_OF_PERICENTER":187.5874,"MEAN_ANOMALY":172.4962,"EPHEMERIS_TYPE":0,"CLASSIFICATION_TYPE":"U","NORAD_CAT_ID":63793,"ELEMENT_SET_NO":999,"REV_AT_EPOCH":4639,"BSTAR":0.00076592224,"MEAN_MOTION_DOT":0.00020884,"MEAN_MOTION_DDOT":0},{"OBJECT_NAME":"STARLINK-33870","OBJECT_ID":"2025-091V","EPOCH":"2026-02-21T06:22:05.619648","MEAN_MOTION":15.2761877,"ECCENTRICITY":0.0002923,"INCLINATION":43.0032,"RA_OF_ASC_NODE":144.9929,"ARG_OF_PERICENTER":282.2981,"MEAN_ANOMALY":77.7543,"EPHEMERIS_TYPE":0,"CLASSIFICATION_TYPE":"U","NORAD_CAT_ID":63794,"ELEMENT_SET_NO":999,"REV_AT_EPOCH":4639,"BSTAR":0.00097482,"MEAN_MOTION_DOT":0.00026693,"MEAN_MOTION_DDOT":0},{"OBJECT_NAME":"STARLINK-33867","OBJECT_ID":"2025-091W","EPOCH":"2026-02-21T07:12:04.388256","MEAN_MOTION":15.27598167,"ECCENTRICITY":0.0002434,"INCLINATION":42.9967,"RA_OF_ASC_NODE":145.2554,"ARG_OF_PERICENTER":285.3815,"MEAN_ANOMALY":74.6767,"EPHEMERIS_TYPE":0,"CLASSIFICATION_TYPE":"U","NORAD_CAT_ID":63795,"ELEMENT_SET_NO":999,"REV_AT_EPOCH":4639,"BSTAR":0.00090062,"MEAN_MOTION_DOT":0.00024619,"MEAN_MOTION_DDOT":0},{"OBJECT_NAME":"STARLINK-33918","OBJECT_ID":"2025-091X","EPOCH":"2026-02-21T07:13:54.596640","MEAN_MOTION":15.27601817,"ECCENTRICITY":0.0002732,"INCLINATION":42.994,"RA_OF_ASC_NODE":145.2592,"ARG_OF_PERICENTER":170.6374,"MEAN_ANOMALY":189.4529,"EPHEMERIS_TYPE":0,"CLASSIFICATION_TYPE":"U","NORAD_CAT_ID":63796,"ELEMENT_SET_NO":999,"REV_AT_EPOCH":4644,"BSTAR":0.00086243,"MEAN_MOTION_DOT":0.00023563,"MEAN_MOTION_DDOT":0},{"OBJECT_NAME":"STARLINK-33712","OBJECT_ID":"2025-091Y","EPOCH":"2026-02-21T14:56:36.526272","MEAN_MOTION":15.27620082,"ECCENTRICITY":0.00023163,"INCLINATION":43.002,"RA_OF_ASC_NODE":146.9012,"ARG_OF_PERICENTER":282.884,"MEAN_ANOMALY":77.1753,"EPHEMERIS_TYPE":0,"CLASSIFICATION_TYPE":"U","NORAD_CAT_ID":63797,"ELEMENT_SET_NO":999,"REV_AT_EPOCH":4640,"BSTAR":0.00082070621,"MEAN_MOTION_DOT":0.00022419,"MEAN_MOTION_DDOT":0},{"OBJECT_NAME":"STARLINK-33827","OBJECT_ID":"2025-091Z","EPOCH":"2026-02-21T06:57:16.426080","MEAN_MOTION":15.27592437,"ECCENTRICITY":0.0001386,"INCLINATION":42.9978,"RA_OF_ASC_NODE":145.1767,"ARG_OF_PERICENTER":273.0632,"MEAN_ANOMALY":87.0061,"EPHEMERIS_TYPE":0,"CLASSIFICATION_TYPE":"U","NORAD_CAT_ID":63798,"ELEMENT_SET_NO":999,"REV_AT_EPOCH":4639,"BSTAR":0.00086504,"MEAN_MOTION_DOT":0.00023627,"MEAN_MOTION_DDOT":0},{"OBJECT_NAME":"STARLINK-33899","OBJECT_ID":"2025-091AA","EPOCH":"2026-02-21T14:36:56.566656","MEAN_MOTION":15.27617966,"ECCENTRICITY":0.00018693,"INCLINATION":43.0035,"RA_OF_ASC_NODE":143.2733,"ARG_OF_PERICENTER":283.6779,"MEAN_ANOMALY":76.3864,"EPHEMERIS_TYPE":0,"CLASSIFICATION_TYPE":"U","NORAD_CAT_ID":63799,"ELEMENT_SET_NO":999,"REV_AT_EPOCH":4655,"BSTAR":0.00084954415,"MEAN_MOTION_DOT":0.00023216,"MEAN_MOTION_DDOT":0},{"OBJECT_NAME":"STARLINK-33900","OBJECT_ID":"2025-091AB","EPOCH":"2026-02-21T14:31:23.216448","MEAN_MOTION":15.2760678,"ECCENTRICITY":0.00029358,"INCLINATION":43.0069,"RA_OF_ASC_NODE":143.2397,"ARG_OF_PERICENTER":267.3005,"MEAN_ANOMALY":92.7511,"EPHEMERIS_TYPE":0,"CLASSIFICATION_TYPE":"U","NORAD_CAT_ID":63800,"ELEMENT_SET_NO":999,"REV_AT_EPOCH":4655,"BSTAR":0.00098504991,"MEAN_MOTION_DOT":0.00026967,"MEAN_MOTION_DDOT":0},{"OBJECT_NAME":"STARLINK-33975","OBJECT_ID":"2025-091AC","EPOCH":"2026-02-21T06:20:16.007424","MEAN_MOTION":15.27596604,"ECCENTRICITY":0.0001129,"INCLINATION":42.996,"RA_OF_ASC_NODE":144.9747,"ARG_OF_PERICENTER":178.5885,"MEAN_ANOMALY":181.497,"EPHEMERIS_TYPE":0,"CLASSIFICATION_TYPE":"U","NORAD_CAT_ID":63802,"ELEMENT_SET_NO":999,"REV_AT_EPOCH":4650,"BSTAR":0.001096,"MEAN_MOTION_DOT":0.00030035,"MEAN_MOTION_DDOT":0},{"OBJECT_NAME":"STARLINK-33951","OBJECT_ID":"2025-091AD","EPOCH":"2026-02-21T14:18:26.197056","MEAN_MOTION":15.27609956,"ECCENTRICITY":0.00013365,"INCLINATION":43.0002,"RA_OF_ASC_NODE":143.1706,"ARG_OF_PERICENTER":263.7591,"MEAN_ANOMALY":96.3109,"EPHEMERIS_TYPE":0,"CLASSIFICATION_TYPE":"U","NORAD_CAT_ID":63803,"ELEMENT_SET_NO":999,"REV_AT_EPOCH":4649,"BSTAR":0.00075894491,"MEAN_MOTION_DOT":0.000207,"MEAN_MOTION_DDOT":0},{"OBJECT_NAME":"STARLINK-33909","OBJECT_ID":"2025-092A","EPOCH":"2026-02-21T15:07:13.915488","MEAN_MOTION":15.2760112,"ECCENTRICITY":0.00010771,"INCLINATION":43.0007,"RA_OF_ASC_NODE":263.6702,"ARG_OF_PERICENTER":254.3996,"MEAN_ANOMALY":105.6737,"EPHEMERIS_TYPE":0,"CLASSIFICATION_TYPE":"U","NORAD_CAT_ID":63804,"ELEMENT_SET_NO":999,"REV_AT_EPOCH":4615,"BSTAR":0.0011079444,"MEAN_MOTION_DOT":0.00030371,"MEAN_MOTION_DDOT":0},{"OBJECT_NAME":"STARLINK-34029","OBJECT_ID":"2025-092B","EPOCH":"2026-02-21T14:59:49.777152","MEAN_MOTION":15.27611441,"ECCENTRICITY":0.00010955,"INCLINATION":42.9984,"RA_OF_ASC_NODE":263.6227,"ARG_OF_PERICENTER":214.6964,"MEAN_ANOMALY":145.3817,"EPHEMERIS_TYPE":0,"CLASSIFICATION_TYPE":"U","NORAD_CAT_ID":63805,"ELEMENT_SET_NO":999,"REV_AT_EPOCH":4615,"BSTAR":0.00088209373,"MEAN_MOTION_DOT":0.00024114,"MEAN_MOTION_DDOT":0},{"OBJECT_NAME":"STARLINK-34102","OBJECT_ID":"2025-092C","EPOCH":"2026-02-21T14:57:58.677120","MEAN_MOTION":15.27597551,"ECCENTRICITY":0.00010067,"INCLINATION":42.9997,"RA_OF_ASC_NODE":263.6169,"ARG_OF_PERICENTER":248.406,"MEAN_ANOMALY":111.6684,"EPHEMERIS_TYPE":0,"CLASSIFICATION_TYPE":"U","NORAD_CAT_ID":63806,"ELEMENT_SET_NO":999,"REV_AT_EPOCH":4620,"BSTAR":0.001028731,"MEAN_MOTION_DOT":0.0002817,"MEAN_MOTION_DDOT":0},{"OBJECT_NAME":"STARLINK-34109","OBJECT_ID":"2025-092D","EPOCH":"2026-02-20T23:49:30.022176","MEAN_MOTION":15.27592045,"ECCENTRICITY":0.00024003,"INCLINATION":43.0013,"RA_OF_ASC_NODE":266.623,"ARG_OF_PERICENTER":256.1813,"MEAN_ANOMALY":103.8772,"EPHEMERIS_TYPE":0,"CLASSIFICATION_TYPE":"U","NORAD_CAT_ID":63807,"ELEMENT_SET_NO":999,"REV_AT_EPOCH":4606,"BSTAR":0.00080998565,"MEAN_MOTION_DOT":0.00022103,"MEAN_MOTION_DDOT":0},{"OBJECT_NAME":"STARLINK-34091","OBJECT_ID":"2025-092E","EPOCH":"2026-02-21T14:33:55.827360","MEAN_MOTION":15.27577142,"ECCENTRICITY":4.516e-5,"INCLINATION":42.9966,"RA_OF_ASC_NODE":263.4918,"ARG_OF_PERICENTER":221.3544,"MEAN_ANOMALY":138.7273,"EPHEMERIS_TYPE":0,"CLASSIFICATION_TYPE":"U","NORAD_CAT_ID":63808,"ELEMENT_SET_NO":999,"REV_AT_EPOCH":4620,"BSTAR":0.00077475141,"MEAN_MOTION_DOT":0.00021117,"MEAN_MOTION_DDOT":0}]
