STARLINK-33916          
1 63792U 25091T   26052.30775882  .00022376  00000+0  81937-3 0  9999
2 63792  42.9993 145.3112 0001319 208.7559 151.3220 15.27612209 46393
STARLINK-33925          
1 63793U 25091U   26051.55253387  .00020884  00000+0  76592-3 0  9990
2 63793  42.9965 149.0986 0001067 187.5874 172.4962 15.27595669 46394
STARLINK-33870          
1 63794U 25091V   26052.26534282  .00026693  00000+0  97482-3 0  9991
2 63794  43.0032 144.9929 0002923 282.2981  77.7543 15.27618770 46398
STARLINK-33867          
1 63795U 25091W   26052.30005079  .00024619  00000+0  90062-3 0  9997
2 63795  42.9967 145.2554 0002434 285.3815  74.6767 15.27598167 46390
STARLINK-33918          
1 63796U 25091X   26052.30132635  .00023563  00000+0  86243-3 0  9990
2 63796  42.9940 145.2592 0002732 170.6374 189.4529 15.27601817 46445
STARLINK-33712          
1 63797U 25091Y   26052.62264498  .00022419  00000+0  82071-3 0  9993
2 63797  43.0020 146.9012 0002316 282.8840  77.1753 15.27620082 46407
STARLINK-33827          
1 63798U 25091Z   26052.28977345  .00023627  00000+0  86504-3 0  9995
2 63798  42.9978 145.1767 0001386 273.0632  87.0061 15.27592437 46395
STARLINK-33899          
1 63799U 25091AA  26052.60898804  .00023216  00000+0  84954-3 0  9995
2 63799  43.0035 143.2733 0001869 283.6779  76.3864 15.27617966 46554
STARLINK-33900          
1 63800U 25091AB  26052.60512982  .00026967  00000+0  98505-3 0  9991
2 63800  43.0069 143.2397 0002935 267.3005  92.7511 15.27606780 46559
STARLINK-33975          
1 63802U 25091AC  26052.26407416  .00030035  00000+0  10960-2 0  9999
2 63802  42.9960 144.9747 0001129 178.5885 181.4970 15.27596604 46502
STARLINK-33951          
1 63803U 25091AD  26052.59613654  .00020700  00000+0  75894-3 0  9995
2 63803  43.0002 143.1706 0001336 263.7591  96.3109 15.27609956 46490
STARLINK-33909          
1 63804U 25092A   26052.63002217  .00030371  00000+0  11079-2 0  9998
2 63804  43.0007 263.6702 0001077 254.3996 105.6737 15.27601120 46156
STARLINK-34029          
1 63805U 25092B   26052.62488168  .00024114  00000+0  88209-3 0  9999
2 63805  42.9984 263.6227 0001095 214.6964 145.3817 15.27611441 46152
STARLINK-34102          
1 63806U 25092C   26052.62359580  .00028170  00000+0  10287-2 0  9991
2 63806  42.9997 263.6169 0001006 248.4060 111.6684 15.27597551 46205
STARLINK-34109          
1 63807U 25092D   26051.99270859  .00022103  00000+0  80999-3 0  9990
2 63807  43.0013 266.6230 0002400 256.1813 103.8772 15.27592045 46068
STARLINK-34091          
1 63808U 25092E   26052.60689615  .00021117  00000+0  77475-3 0  9993
2 63808  42.9966 263.4918 0000451 221.3544 138.7273 15.27577142 46201
